start=new Date('2022-07-24T00:00:00.000Z').valueOf();
sats=[{"LAUNCH_DATE":"2020-06-04","ELEMENT_SET_NO":"999","OBJECT_TYPE":"PAYLOAD","DECAY_DATE":null,"OBJECT_NAME":"STARLINK-1420","CLASSIFICATION_TYPE":"U","OBJECT_ID":"2020-035AQ","INCLINATION":"53.0537","ARG_OF_PERICENTER":"53.5401","NORAD_CAT_ID":"45695","RCS_SIZE":"LARGE","SEMIMAJOR_AXIS":"6925.348","COUNTRY_CODE":"US","GP_ID":"208733374","ECCENTRICITY":"0.00016310","MEAN_MOTION_DOT":"0.00001618","MEAN_MOTION_DDOT":"0.0000000000000","PERIAPSIS":"546.083","CENTER_NAME":"EARTH","EPHEMERIS_TYPE":"0","TLE_LINE2":"2 45695  53.0537 225.4398 0001631  53.5401 306.5738 15.06400203119426","PERIOD":"95.592","MEAN_ELEMENT_THEORY":"SGP4","MEAN_ANOMALY":"306.5738","TLE_LINE1":"1 45695U 20035AQ  22204.53787137  .00001618  00000-0  12752-3 0  9996","RA_OF_ASC_NODE":"225.4398","REF_FRAME":"TEME","FILE":"3520602","APOAPSIS":"548.342","TIME_SYSTEM":"UTC","BSTAR":"0.00012752000000","MEAN_MOTION":"15.06400203","REV_AT_EPOCH":"11942","SITE":"AFETR","EPOCH":"2022-07-23T12:54:32.086368"},{"MEAN_MOTION_DOT":"0.00002577","ECCENTRICITY":"0.00015940","TLE_LINE1":"1 45696U 20035AR  22204.81344421  .00002577  00000-0  19188-3 0  9998","RA_OF_ASC_NODE":"244.2116","MEAN_ANOMALY":"292.4996","PERIOD":"95.593","MEAN_ELEMENT_THEORY":"SGP4","TLE_LINE2":"2 45696  53.0532 244.2116 0001594  67.6162 292.4996 15.06392195119178","EPHEMERIS_TYPE":"0","CENTER_NAME":"EARTH","PERIAPSIS":"546.134","MEAN_MOTION_DDOT":"0.0000000000000","FILE":"3520602","APOAPSIS":"548.341","REF_FRAME":"TEME","EPOCH":"2022-07-23T19:31:21.579744","SITE":"AFETR","REV_AT_EPOCH":"11917","MEAN_MOTION":"15.06392195","TIME_SYSTEM":"UTC","BSTAR":"0.00019188000000","OBJECT_TYPE":"PAYLOAD","ELEMENT_SET_NO":"999","LAUNCH_DATE":"2020-06-04","CLASSIFICATION_TYPE":"U","OBJECT_NAME":"STARLINK-1422","DECAY_DATE":null,"RCS_SIZE":"LARGE","NORAD_CAT_ID":"45696","ARG_OF_PERICENTER":"67.6162","INCLINATION":"53.0532","OBJECT_ID":"2020-035AR","GP_ID":"208733624","COUNTRY_CODE":"US","SEMIMAJOR_AXIS":"6925.372"},{"MEAN_MOTION":"15.06395117","BSTAR":"0.00015471000000","TIME_SYSTEM":"UTC","EPOCH":"2022-07-23T18:56:50.608896","REV_AT_EPOCH":"11946","SITE":"AFETR","APOAPSIS":"548.184","FILE":"3520602","REF_FRAME":"TEME","EPHEMERIS_TYPE":"0","CENTER_NAME":"EARTH","MEAN_MOTION_DDOT":"0.0000000000000","PERIAPSIS":"546.274","RA_OF_ASC_NODE":"224.3393","TLE_LINE1":"1 45697U 20035AS  22204.78947464  .00002023  00000-0  15471-3 0  9998","MEAN_ANOMALY":"284.1765","MEAN_ELEMENT_THEORY":"SGP4","PERIOD":"95.592","TLE_LINE2":"2 45697  53.0543 224.3393 0001379  75.9377 284.1765 15.06395117119469","MEAN_MOTION_DOT":"0.00002023","ECCENTRICITY":"0.00013790","GP_ID":"208734873","COUNTRY_CODE":"US","SEMIMAJOR_AXIS":"6925.364","INCLINATION":"53.0543","OBJECT_ID":"2020-035AS","RCS_SIZE":"LARGE","NORAD_CAT_ID":"45697","ARG_OF_PERICENTER":"75.9377","OBJECT_NAME":"STARLINK-1351","DECAY_DATE":null,"CLASSIFICATION_TYPE":"U","OBJECT_TYPE":"PAYLOAD","ELEMENT_SET_NO":"999","LAUNCH_DATE":"2020-06-04"},{"APOAPSIS":"548.072","FILE":"3520602","REF_FRAME":"TEME","EPOCH":"2022-07-23T18:39:33.924672","SITE":"AFETR","REV_AT_EPOCH":"11946","MEAN_MOTION":"15.06395115","BSTAR":"0.00016345000000","TIME_SYSTEM":"UTC","MEAN_MOTION_DOT":"0.00002154","ECCENTRICITY":"0.00012180","RA_OF_ASC_NODE":"224.3738","TLE_LINE1":"1 45698U 20035AT  22204.77747598  .00002154  00000-0  16345-3 0  9990","MEAN_ANOMALY":"300.8685","PERIOD":"95.592","MEAN_ELEMENT_THEORY":"SGP4","TLE_LINE2":"2 45698  53.0539 224.3738 0001218  59.2423 300.8685 15.06395115119462","EPHEMERIS_TYPE":"0","CENTER_NAME":"EARTH","PERIAPSIS":"546.385","MEAN_MOTION_DDOT":"0.0000000000000","RCS_SIZE":"LARGE","NORAD_CAT_ID":"45698","ARG_OF_PERICENTER":"59.2423","INCLINATION":"53.0539","OBJECT_ID":"2020-035AT","GP_ID":"208734624","COUNTRY_CODE":"US","SEMIMAJOR_AXIS":"6925.364","OBJECT_TYPE":"PAYLOAD","ELEMENT_SET_NO":"999","LAUNCH_DATE":"2020-06-04","CLASSIFICATION_TYPE":"U","OBJECT_NAME":"STARLINK-1370","DECAY_DATE":null},{"APOAPSIS":"548.181","FILE":"3520602","REF_FRAME":"TEME","MEAN_MOTION":"15.06387978","TIME_SYSTEM":"UTC","BSTAR":"0.00027051000000","EPOCH":"2022-07-23T18:25:00.066432","SITE":"AFETR","REV_AT_EPOCH":"11945","ECCENTRICITY":"0.00013440","MEAN_MOTION_DOT":"0.00003749","EPHEMERIS_TYPE":"0","MEAN_MOTION_DDOT":"0.0000000000000","PERIAPSIS":"546.320","CENTER_NAME":"EARTH","MEAN_ANOMALY":"274.9239","TLE_LINE1":"1 45699U 20035AU  22204.76736188  .00003749  00000-0  27051-3 0  9990","RA_OF_ASC_NODE":"224.4390","TLE_LINE2":"2 45699  53.0533 224.4390 0001344  85.1904 274.9239 15.06387978119457","PERIOD":"95.593","MEAN_ELEMENT_THEORY":"SGP4","OBJECT_ID":"2020-035AU","INCLINATION":"53.0533","ARG_OF_PERICENTER":"85.1904","RCS_SIZE":"LARGE","NORAD_CAT_ID":"45699","COUNTRY_CODE":"US","GP_ID":"208733874","SEMIMAJOR_AXIS":"6925.385","ELEMENT_SET_NO":"999","OBJECT_TYPE":"PAYLOAD","LAUNCH_DATE":"2020-06-04","OBJECT_NAME":"STARLINK-1398","DECAY_DATE":null,"CLASSIFICATION_TYPE":"U"},{"PERIOD":"95.591","MEAN_ELEMENT_THEORY":"SGP4","TLE_LINE2":"2 45700  53.0519 224.4325 0001421  92.6229 267.4923 15.06416072119456","RA_OF_ASC_NODE":"224.4325","TLE_LINE1":"1 45700U 20035AV  22204.76365878  .00004800  00000-0  34074-3 0  9999","MEAN_ANOMALY":"267.4923","CENTER_NAME":"EARTH","PERIAPSIS":"546.180","MEAN_MOTION_DDOT":"0.0000000000000","EPHEMERIS_TYPE":"0","MEAN_MOTION_DOT":"0.00004800","ECCENTRICITY":"0.00014210","SITE":"AFETR","REV_AT_EPOCH":"11945","EPOCH":"2022-07-23T18:19:40.118592","TIME_SYSTEM":"UTC","BSTAR":"0.00034074000000","MEAN_MOTION":"15.06416072","REF_FRAME":"TEME","FILE":"3520602","APOAPSIS":"548.148","CLASSIFICATION_TYPE":"U","DECAY_DATE":null,"OBJECT_NAME":"STARLINK-1400","LAUNCH_DATE":"2020-06-04","OBJECT_TYPE":"PAYLOAD","ELEMENT_SET_NO":"999","SEMIMAJOR_AXIS":"6925.299","GP_ID":"208734124","COUNTRY_CODE":"US","NORAD_CAT_ID":"45700","RCS_SIZE":"LARGE","ARG_OF_PERICENTER":"92.6229","INCLINATION":"53.0519","OBJECT_ID":"2020-035AV"},{"ARG_OF_PERICENTER":"60.9054","NORAD_CAT_ID":"45701","RCS_SIZE":"LARGE","OBJECT_ID":"2020-035AW","INCLINATION":"53.0550","COUNTRY_CODE":"US","GP_ID":"208734375","SEMIMAJOR_AXIS":"6925.353","ELEMENT_SET_NO":"999","OBJECT_TYPE":"PAYLOAD","LAUNCH_DATE":"2020-06-04","CLASSIFICATION_TYPE":"U","OBJECT_NAME":"STARLINK-1403","DECAY_DATE":null,"APOAPSIS":"548.401","FILE":"3520602","REF_FRAME":"TEME","EPOCH":"2022-07-23T19:02:08.518560","REV_AT_EPOCH":"11945","SITE":"AFETR","MEAN_MOTION":"15.06398432","BSTAR":"0.00017571000000","TIME_SYSTEM":"UTC","ECCENTRICITY":"0.00017080","MEAN_MOTION_DOT":"0.00002336","MEAN_ANOMALY":"299.2106","RA_OF_ASC_NODE":"224.3146","TLE_LINE1":"1 45701U 20035AW  22204.79315415  .00002336  00000-0  17571-3 0  9990","TLE_LINE2":"2 45701  53.0550 224.3146 0001708  60.9054 299.2106 15.06398432119459","PERIOD":"95.592","MEAN_ELEMENT_THEORY":"SGP4","EPHEMERIS_TYPE":"0","MEAN_MOTION_DDOT":"0.0000000000000","PERIAPSIS":"546.036","CENTER_NAME":"EARTH"},{"EPHEMERIS_TYPE":"0","MEAN_MOTION_DDOT":"0.0000000000000","PERIAPSIS":"546.142","CENTER_NAME":"EARTH","MEAN_ANOMALY":"295.5269","TLE_LINE1":"1 45702U 20035AX  22204.77471906  .00002445  00000-0  18301-3 0  9990","RA_OF_ASC_NODE":"224.3903","TLE_LINE2":"2 45702  53.0540 224.3903 0001548  64.5880 295.5269 15.06399991119459","PERIOD":"95.592","MEAN_ELEMENT_THEORY":"SGP4","ECCENTRICITY":"0.00015480","MEAN_MOTION_DOT":"0.00002445","MEAN_MOTION":"15.06399991","TIME_SYSTEM":"UTC","BSTAR":"0.00018301000000","EPOCH":"2022-07-23T18:35:35.726784","REV_AT_EPOCH":"11945","SITE":"AFETR","APOAPSIS":"548.286","FILE":"3520602","REF_FRAME":"TEME","OBJECT_NAME":"STARLINK-1405","DECAY_DATE":null,"CLASSIFICATION_TYPE":"U","ELEMENT_SET_NO":"999","OBJECT_TYPE":"PAYLOAD","LAUNCH_DATE":"2020-06-04","COUNTRY_CODE":"US","GP_ID":"208735124","SEMIMAJOR_AXIS":"6925.349","OBJECT_ID":"2020-035AX","INCLINATION":"53.0540","ARG_OF_PERICENTER":"64.5880","RCS_SIZE":"LARGE","NORAD_CAT_ID":"45702"},{"APOAPSIS":"548.155","FILE":"3520602","REF_FRAME":"TEME","EPOCH":"2022-07-23T18:30:17.061120","REV_AT_EPOCH":"11945","SITE":"AFETR","MEAN_MOTION":"15.06408376","BSTAR":"0.00021471000000","TIME_SYSTEM":"UTC","MEAN_MOTION_DOT":"0.00002919","ECCENTRICITY":"0.00013970","RA_OF_ASC_NODE":"224.4225","TLE_LINE1":"1 45703U 20035AY  22204.77103080  .00002919  00000-0  21471-3 0  9994","MEAN_ANOMALY":"286.0630","PERIOD":"95.592","MEAN_ELEMENT_THEORY":"SGP4","TLE_LINE2":"2 45703  53.0538 224.4225 0001397  74.0513 286.0630 15.06408376119451","EPHEMERIS_TYPE":"0","CENTER_NAME":"EARTH","PERIAPSIS":"546.220","MEAN_MOTION_DDOT":"0.0000000000000","NORAD_CAT_ID":"45703","RCS_SIZE":"LARGE","ARG_OF_PERICENTER":"74.0513","INCLINATION":"53.0538","OBJECT_ID":"2020-035AY","GP_ID":"208733375","COUNTRY_CODE":"US","SEMIMAJOR_AXIS":"6925.323","OBJECT_TYPE":"PAYLOAD","ELEMENT_SET_NO":"999","LAUNCH_DATE":"2020-06-04","CLASSIFICATION_TYPE":"U","OBJECT_NAME":"STARLINK-1407","DECAY_DATE":null},{"GP_ID":"208733625","COUNTRY_CODE":"US","SEMIMAJOR_AXIS":"6925.382","NORAD_CAT_ID":"45704","RCS_SIZE":"LARGE","ARG_OF_PERICENTER":"74.6267","INCLINATION":"53.0538","OBJECT_ID":"2020-035AZ","CLASSIFICATION_TYPE":"U","OBJECT_NAME":"STARLINK-1409","DECAY_DATE":null,"OBJECT_TYPE":"PAYLOAD","ELEMENT_SET_NO":"999","LAUNCH_DATE":"2020-06-04","EPOCH":"2022-07-23T20:42:57.024000","REV_AT_EPOCH":"11905","SITE":"AFETR","MEAN_MOTION":"15.06389148","BSTAR":"0.00007486700000","TIME_SYSTEM":"UTC","FILE":"3520602","APOAPSIS":"548.054","REF_FRAME":"TEME","RA_OF_ASC_NODE":"254.0095","TLE_LINE1":"1 45704U 20035AZ  22204.86316000  .00000834  00000-0  74867-4 0  9995","MEAN_ANOMALY":"285.4851","MEAN_ELEMENT_THEORY":"SGP4","PERIOD":"95.593","TLE_LINE2":"2 45704  53.0538 254.0095 0001166  74.6267 285.4851 15.06389148119051","EPHEMERIS_TYPE":"0","CENTER_NAME":"EARTH","MEAN_MOTION_DDOT":"0.0000000000000","PERIAPSIS":"546.439","MEAN_MOTION_DOT":"0.00000834","ECCENTRICITY":"0.00011660"}];
